0 FENGYUN 1C DEB
1 33724U 99025DHM 13280.81106745  .00000567  00000-0  32438-3 0  2871
2 33724 098.9655 289.2421 0028506 281.4769 202.8758 14.13488193317879
0 FENGYUN 1C DEB
1 33724U 99025DHM 13283.27544045  .00000554  00000-0  31713-3 0  2885
2 33724 098.9652 291.7120 0028546 274.1993 143.2991 14.13493635318226
0 FENGYUN 1C DEB
1 33724U 99025DHM 13285.83659844  .00000497  00000-0  28695-3 0  2895
2 33724 098.9647 294.2789 0028593 266.6533 216.2556 14.13496708318588
0 FENGYUN 1C DEB
1 33724U 99025DHM 13289.29367659  .00000696  00000-0  39245-3 0  2905
2 33724 098.9644 297.7432 0028667 256.5403 168.2624 14.13501274319076
0 FENGYUN 1C DEB
1 33724U 99025DHM 13291.85327726  .00000625  00000-0  35456-3 0  2914
2 33724 098.9648 300.3080 0028779 249.1281 233.2430 14.13505880319431
0 FENGYUN 1C DEB
1 33724U 99025DHM 13293.90495611  .00000653  00000-0  36951-3 0  2924
2 33724 098.9651 302.3638 0028837 243.1988 233.5932 14.13509098319726
